IRIDIUM 57              
1 25273U 98019B   24184.55401731  .00000633  00000+0  21426-3 0  9990
2 25273  86.3960 291.6840 0002195  94.9236 265.2211 14.35267492374627
IRIDIUM 63              
1 25286U 98021B   24184.57177707  .00000618  00000+0  20686-3 0  9992
2 25286  86.3986 228.5764 0002191  88.9799 271.1648 14.35818063373665
IRIDIUM 69              
1 25319U 98026A   24184.59503354  .00000759  00000+0  23462-3 0  9998
2 25319  86.3973 242.9061 0004638  95.1242 265.0487 14.40061729372734
IRIDIUM 71              
1 25320U 98026B   24184.59172955  .00000684  00000+0  20955-3 0  9990
2 25320  86.3974 237.6655 0003728 125.3932 234.7616 14.40371649373258
IRIDIUM 73              
1 25344U 98032C   24184.54619580  .00000946  00000+0  23611-3 0  9991
2 25344  86.4439 195.1105 0002986  91.8806 268.2741 14.50604517379858
IRIDIUM 82              
1 25467U 98051A   24184.77662657  .00020352  00000+0  10052-2 0  9993
2 25467  86.3759 278.3725 0126801 162.5793 197.9858 15.10853525370843
